[{"OBJECT_NAME":"ONEWEB-0129","OBJECT_ID":"2020-100T","EPOCH":"2026-03-09T19:49:05.035008","MEAN_MOTION":13.12442146,"ECCENTRICITY":0.00029436,"INCLINATION":87.9002,"RA_OF_ASC_NODE":10.3765,"ARG_OF_PERICENTER":75.1093,"MEAN_ANOMALY":285.0362,"EPHEMERIS_TYPE":0,"CLASSIFICATION_TYPE":"U","NORAD_CAT_ID":47275,"ELEMENT_SET_NO":999,"REV_AT_EPOCH":25164,"BSTAR":0.0011849656,"MEAN_MOTION_DOT":4.39e-6,"MEAN_MOTION_DDOT":0},{"OBJECT_NAME":"SL-14 DEB","OBJECT_ID":"1991-056D","EPOCH":"2026-03-09T21:32:18.039264","MEAN_MOTION":13.1413297,"ECCENTRICITY":0.00159596,"INCLINATION":82.5663,"RA_OF_ASC_NODE":219.976,"ARG_OF_PERICENTER":150.8705,"MEAN_ANOMALY":209.3309,"EPHEMERIS_TYPE":0,"CLASSIFICATION_TYPE":"U","NORAD_CAT_ID":45267,"ELEMENT_SET_NO":999,"REV_AT_EPOCH":29118,"BSTAR":-0.00084230434,"MEAN_MOTION_DOT":-2.98e-6,"MEAN_MOTION_DDOT":0}]
